{
  "type": "FeatureCollection",
  "features": [
    {
      "type": "Feature",
      "properties": {
        "norad_id": 30342,
        "name": "FENGYUN 1C DEB",
        "group": "fengyun-1c-debris",
        "lat": 50.88076870820045,
        "lon": 3.575283150540645,
        "alt_km": 840.0181770730787,
        "timestamp": "2025-12-16T23:36:36.472198+00:00",
        "meta_object_name": "FENGYUN 1C DEB",
        "meta_object_id": "1999-025ABD",
        "meta_epoch": "2025-12-15T10:45:19.346112",
        "meta_mean_motion": 13.80047902,
        "meta_eccentricity": 0.01683262,
        "meta_inclination": 100.1956,
        "meta_ra_of_asc_node": 169.1369,
        "meta_arg_of_pericenter": 115.7141,
        "meta_mean_anomaly": 306.4024,
        "meta_ephemeris_type": 0,
        "meta_classification_type": "U",
        "meta_norad_cat_id": 30342,
        "meta_element_set_no": 999,
        "meta_rev_at_epoch": 94926,
        "meta_bstar": 0.00066744893,
        "meta_mean_motion_dot": 7.22e-06,
        "meta_mean_motion_ddot": 0,
        "tle_line1": "1 30342U 99025ABD 25349.44814058  .00000722  00000+0  66745-3 0  9995",
        "tle_line2": "2 30342 100.1956 169.1369 0168326 115.7141 306.4024 13.80047902949260"
      },
      "geometry": {
        "type": "Point",
        "coordinates": [
          3.575283150540645,
          50.88076870820045
        ]
      }
    },
    {
      "type": "Feature",
      "properties": {
        "norad_id": 30344,
        "name": "FENGYUN 1C DEB",
        "group": "fengyun-1c-debris",
        "lat": -48.383610053385404,
        "lon": -116.81460088216414,
        "alt_km": 729.1149866272972,
        "timestamp": "2025-12-16T23:36:36.472208+00:00",
        "meta_object_name": "FENGYUN 1C DEB",
        "meta_object_id": "1999-025ABF",
        "meta_epoch": "2025-12-16T04:38:22.011648",
        "meta_mean_motion": 14.51822927,
        "meta_eccentricity": 0.00075056,
        "meta_inclination": 98.8206,
        "meta_ra_of_asc_node": 72.4226,
        "meta_arg_of_pericenter": 111.8449,
        "meta_mean_anomaly": 308.2224,
        "meta_ephemeris_type": 0,
        "meta_classification_type": "U",
        "meta_norad_cat_id": 30344,
        "meta_element_set_no": 999,
        "meta_rev_at_epoch": 98127,
        "meta_bstar": 0.0016680742,
        "meta_mean_motion_dot": 6.672e-05,
        "meta_mean_motion_ddot": 0,
        "tle_line1": "1 30344U 99025ABF 25350.19331032  .00006672  00000+0  16681-2 0  9990",
        "tle_line2": "2 30344  98.8206  72.4226 0007505 111.8449 308.2224 14.51822927981276"
      },
      "geometry": {
        "type": "Point",
        "coordinates": [
          -116.81460088216414,
          -48.383610053385404
        ]
      }
    },
    {
      "type": "Feature",
      "properties": {
        "norad_id": 30345,
        "name": "FENGYUN 1C DEB",
        "group": "fengyun-1c-debris",
        "lat": 58.263165662372685,
        "lon": -114.74481044300323,
        "alt_km": 751.3584332981318,
        "timestamp": "2025-12-16T23:36:36.472218+00:00",
        "meta_object_name": "FENGYUN 1C DEB",
        "meta_object_id": "1999-025ABG",
        "meta_epoch": "2025-12-16T03:03:49.399776",
        "meta_mean_motion": 14.4170665,
        "meta_eccentricity": 0.0017574,
        "meta_inclination": 98.9218,
        "meta_ra_of_asc_node": 49.6481,
        "meta_arg_of_pericenter": 232.6131,
        "meta_mean_anomaly": 127.3457,
        "meta_ephemeris_type": 0,
        "meta_classification_type": "U",
        "meta_norad_cat_id": 30345,
        "meta_element_set_no": 999,
        "meta_rev_at_epoch": 97822,
        "meta_bstar": 0.0014406685,
        "meta_mean_motion_dot": 4.661e-05,
        "meta_mean_motion_ddot": 0,
        "tle_line1": "1 30345U 99025ABG 25350.12765509  .00004661  00000+0  14407-2 0  9994",
        "tle_line2": "2 30345  98.9218  49.6481 0017574 232.6131 127.3457 14.41706650978229"
      },
      "geometry": {
        "type": "Point",
        "coordinates": [
          -114.74481044300323,
          58.263165662372685
        ]
      }
    },
    {
      "type": "Feature",
      "properties": {
        "norad_id": 30346,
        "name": "FENGYUN 1C DEB",
        "group": "fengyun-1c-debris",
        "lat": 72.37398005865789,
        "lon": 58.552178160132144,
        "alt_km": 753.7824888770238,
        "timestamp": "2025-12-16T23:36:36.472228+00:00",
        "meta_object_name": "FENGYUN 1C DEB",
        "meta_object_id": "1999-025ABH",
        "meta_epoch": "2025-12-16T06:50:59.583840",
        "meta_mean_motion": 14.33931673,
        "meta_eccentricity": 0.00552065,
        "meta_inclination": 98.809,
        "meta_ra_of_asc_node": 87.055,
        "meta_arg_of_pericenter": 13.2906,
        "meta_mean_anomaly": 57.936,
        "meta_ephemeris_type": 0,
        "meta_classification_type": "U",
        "meta_norad_cat_id": 30346,
        "meta_element_set_no": 999,
        "meta_rev_at_epoch": 97464,
        "meta_bstar": 0.0013736814,
        "meta_mean_motion_dot": 3.852e-05,
        "meta_mean_motion_ddot": 0,
        "tle_line1": "1 30346U 99025ABH 25350.28541185  .00003852  00000+0  13737-2 0  9990",
        "tle_line2": "2 30346  98.8090  87.0550 0055206  13.2906  57.9360 14.33931673974646"
      },
      "geometry": {
        "type": "Point",
        "coordinates": [
          58.552178160132144,
          72.37398005865789
        ]
      }
    },
    {
      "type": "Feature",
      "properties": {
        "norad_id": 30347,
        "name": "FENGYUN 1C DEB",
        "group": "fengyun-1c-debris",
        "lat": -17.39242135213093,
        "lon": -8.185332063230073,
        "alt_km": 1033.260733513358,
        "timestamp": "2025-12-16T23:36:36.472238+00:00",
        "meta_object_name": "FENGYUN 1C DEB",
        "meta_object_id": "1999-025ABJ",
        "meta_epoch": "2025-12-16T00:50:54.977856",
        "meta_mean_motion": 13.92770101,
        "meta_eccentricity": 0.01504611,
        "meta_inclination": 98.3767,
        "meta_ra_of_asc_node": 173.6014,
        "meta_arg_of_pericenter": 24.5937,
        "meta_mean_anomaly": 100.1436,
        "meta_ephemeris_type": 0,
        "meta_classification_type": "U",
        "meta_norad_cat_id": 30347,
        "meta_element_set_no": 999,
        "meta_rev_at_epoch": 96006,
        "meta_bstar": 0.00019209905,
        "meta_mean_motion_dot": 2.35e-06,
        "meta_mean_motion_ddot": 0,
        "tle_line1": "1 30347U 99025ABJ 25350.03535854  .00000235  00000+0  19210-3 0  9995",
        "tle_line2": "2 30347  98.3767 173.6014 0150461  24.5937 100.1436 13.92770101960065"
      },
      "geometry": {
        "type": "Point",
        "coordinates": [
          -8.185332063230073,
          -17.39242135213093
        ]
      }
    },
    {
      "type": "Feature",
      "properties": {
        "norad_id": 30348,
        "name": "FENGYUN 1C DEB",
        "group": "fengyun-1c-debris",
        "lat": 25.262803860082506,
        "lon": 81.62916896266704,
        "alt_km": 762.4672302941399,
        "timestamp": "2025-12-16T23:36:36.472249+00:00",
        "meta_object_name": "FENGYUN 1C DEB",
        "meta_object_id": "1999-025ABK",
        "meta_epoch": "2025-12-16T05:13:22.528704",
        "meta_mean_motion": 14.35140327,
        "meta_eccentricity": 0.00171162,
        "meta_inclination": 98.8635,
        "meta_ra_of_asc_node": 85.0658,
        "meta_arg_of_pericenter": 5.1369,
        "meta_mean_anomaly": 24.49,
        "meta_ephemeris_type": 0,
        "meta_classification_type": "U",
        "meta_norad_cat_id": 30348,
        "meta_element_set_no": 999,
        "meta_rev_at_epoch": 97584,
        "meta_bstar": 0.0013814204,
        "meta_mean_motion_dot": 3.907e-05,
        "meta_mean_motion_ddot": 0,
        "tle_line1": "1 30348U 99025ABK 25350.21762186  .00003907  00000+0  13814-2 0  9998",
        "tle_line2": "2 30348  98.8635  85.0658 0017116   5.1369  24.4900 14.35140327975843"
      },
      "geometry": {
        "type": "Point",
        "coordinates": [
          81.62916896266704,
          25.262803860082506
        ]
      }
    },
    {
      "type": "Feature",
      "properties": {
        "norad_id": 30349,
        "name": "FENGYUN 1C DEB",
        "group": "fengyun-1c-debris",
        "lat": -3.693953087237881,
        "lon": -46.19860285582592,
        "alt_km": 794.4233228644371,
        "timestamp": "2025-12-16T23:36:36.472283+00:00",
        "meta_object_name": "FENGYUN 1C DEB",
        "meta_object_id": "1999-025ABL",
        "meta_epoch": "2025-12-15T20:39:04.332384",
        "meta_mean_motion": 14.11131852,
        "meta_eccentricity": 0.00892684,
        "meta_inclination": 98.5838,
        "meta_ra_of_asc_node": 312.1688,
        "meta_arg_of_pericenter": 3.539,
        "meta_mean_anomaly": 49.7109,
        "meta_ephemeris_type": 0,
        "meta_classification_type": "U",
        "meta_norad_cat_id": 30349,
        "meta_element_set_no": 999,
        "meta_rev_at_epoch": 96275,
        "meta_bstar": 0.0015625742,
        "meta_mean_motion_dot": 2.88e-05,
        "meta_mean_motion_ddot": 0,
        "tle_line1": "1 30349U 99025ABL 25349.86046681  .00002880  00000+0  15626-2 0  9995",
        "tle_line2": "2 30349  98.5838 312.1688 0089268   3.5390  49.7109 14.11131852962750"
      },
      "geometry": {
        "type": "Point",
        "coordinates": [
          -46.19860285582592,
          -3.693953087237881
        ]
      }
    }
  ]
}